[{"OBJECT_NAME":"STARLINK-6146","OBJECT_ID":"2023-090Z","EPOCH":"2026-03-09T22:30:45.952704","MEAN_MOTION":15.02534437,"ECCENTRICITY":0.00012028,"INCLINATION":43.0027,"RA_OF_ASC_NODE":273.0488,"ARG_OF_PERICENTER":269.6701,"MEAN_ANOMALY":90.4003,"EPHEMERIS_TYPE":0,"CLASSIFICATION_TYPE":"U","NORAD_CAT_ID":57124,"ELEMENT_SET_NO":999,"REV_AT_EPOCH":15045,"BSTAR":8.0813605e-5,"MEAN_MOTION_DOT":8.88e-6,"MEAN_MOTION_DDOT":0},{"OBJECT_NAME":"CZ-6A DEB","OBJECT_ID":"2024-140FB","EPOCH":"2026-03-09T14:48:01.661760","MEAN_MOTION":15.0628726,"ECCENTRICITY":0.0079054,"INCLINATION":89.1878,"RA_OF_ASC_NODE":293.0208,"ARG_OF_PERICENTER":138.3366,"MEAN_ANOMALY":222.3932,"EPHEMERIS_TYPE":0,"CLASSIFICATION_TYPE":"U","NORAD_CAT_ID":60776,"ELEMENT_SET_NO":999,"REV_AT_EPOCH":8515,"BSTAR":0.002571,"MEAN_MOTION_DOT":0.00040709,"MEAN_MOTION_DDOT":0}]
